[{"OBJECT_NAME":"KINEIS-1B","OBJECT_ID":"2024-114A","EPOCH":"2026-03-09T23:21:36.874080","MEAN_MOTION":14.80419144,"ECCENTRICITY":0.00037258,"INCLINATION":97.9923,"RA_OF_ASC_NODE":93.6056,"ARG_OF_PERICENTER":72.6179,"MEAN_ANOMALY":287.544,"EPHEMERIS_TYPE":0,"CLASSIFICATION_TYPE":"U","NORAD_CAT_ID":60079,"ELEMENT_SET_NO":999,"REV_AT_EPOCH":9272,"BSTAR":0.00022203234,"MEAN_MOTION_DOT":1.644e-5,"MEAN_MOTION_DDOT":0},{"OBJECT_NAME":"KUIPER-00174","OBJECT_ID":"2025-217AB","EPOCH":"2026-03-09T02:11:54.435264","MEAN_MOTION":14.79931155,"ECCENTRICITY":0.00015415,"INCLINATION":51.905,"RA_OF_ASC_NODE":30.7651,"ARG_OF_PERICENTER":78.6806,"MEAN_ANOMALY":281.433,"EPHEMERIS_TYPE":0,"CLASSIFICATION_TYPE":"U","NORAD_CAT_ID":65787,"ELEMENT_SET_NO":999,"REV_AT_EPOCH":2499,"BSTAR":0.00070468891,"MEAN_MOTION_DOT":5.155e-5,"MEAN_MOTION_DDOT":0}]
